{"type":"FeatureCollection","features":[{"type":"Feature","id":4,"geometry":{"type":"LineString","coordinates":[[-84.4005546489302,33.8044435509627],[-84.4005009892096,33.8046893831092],[-84.4004992241984,33.8048866722662],[-84.4005004681767,33.8049020619268],[-84.4005044481666,33.8049171245131],[-84.4005110746893,33.80493152388],[-84.4005201999764,33.8049449366158],[-84.4005316190794,33.8049570628602],[-84.4005475054878,33.8050283890966],[-84.4005537182995,33.805074129598],[-84.4005521207704,33.8051201445814],[-84.4005427460137,33.8051655088938],[-84.4005257805471,33.8052093097131],[-84.4005015675962,33.805250669083],[-84.4004705920007,33.8052887538601],[-84.4003224187313,33.8055324243177],[-84.4002351688978,33.8056874744797],[-84.4001936762101,33.8057664886274],[-84.4001571618292,33.8058471965488],[-84.4001257245441,33.8059293807644],[-84.4000994490892,33.8060128184107],[-84.4000966802536,33.8060273230356],[-84.4000964695507,33.8060420085591],[-84.4000988204574,33.8060565639062],[-84.4001036846093,33.8060706790018],[-84.4001319804204,33.8061258576426],[-84.4001669060349,33.8061783232945],[-84.4002080938047,33.8062275212333],[-84.4002551092116,33.8062729329271],[-84.4004836280542,33.8063337732173],[-84.4005324343136,33.8063489600074],[-84.4005792679978,33.806367987928],[-84.4006236976746,33.806390680175],[-84.4006653134264,33.8064168283465],[-84.4007204966535,33.8064582102346],[-84.4007716918576,33.8065030223178],[-84.4008185937249,33.8065509973914],[-84.4008508946141,33.8065821952714],[-84.400887887699,33.8066095206767],[-84.4009289149517,33.8066324852584],[-84.4009885792211,33.8066637663811],[-84.4010453111606,33.8066986425024],[-84.4010974513133,33.8067349735653],[-84.4011474595476,33.8067733373638],[-84.4011724927879,33.8067966559557],[-84.4011931927602,33.8068227679681],[-84.4012091183482,33.8068511179257],[-84.4012199287491,33.8068811014733],[-84.401225395395,33.8069120797793],[-84.4012254009072,33.8069433921603],[-84.4012244369085,33.8069902949569],[-84.401229733685,33.8070369956008],[-84.4012497162506,33.8071318676513],[-84.4012751044517,33.807225834081],[-84.4012912258913,33.8072669392506],[-84.4013141262441,33.807305736832],[-84.4013433476048,33.8073414540798],[-84.4013783058539,33.807373377095],[-84.4014183047498,33.8074008697334],[-84.4014793571639,33.8074347356976],[-84.4015428535455,33.8074653095738],[-84.4017446334635,33.8074393950804],[-84.4019178964014,33.8074237466961],[-84.4019810782284,33.8074151155424],[-84.4019980156146,33.8074132510851],[-84.402015086039,33.8074138217196],[-84.4020317915265,33.8074168094613],[-84.4020476436349,33.8074221277827],[-84.4020621796544,33.8074296206804],[-84.4020749745073,33.8074390698662],[-84.4020856569649,33.8074502001449],[-84.4020939129049,33.8074626857206],[-84.4020995015471,33.807476162788],[-84.4021061110313,33.8074920579267],[-84.4021158960166,33.8075067676498],[-84.4021546429175,33.8075597231382],[-84.4021875409039,33.807615367672],[-84.4022143219523,33.8076732527476],[-84.4022347719904,33.807732910823],[-84.4024049569225,33.8080815004281],[-84.402665312945,33.808596716501],[-84.4027451813661,33.808724215184],[-84.4027588878856,33.808751672941],[-84.4027666947823,33.8087806973287],[-84.4027683652536,33.8088104105978],[-84.4027638493089,33.8088399175091],[-84.4027576821079,33.8088797406135],[-84.4027597213961,33.8089198590787],[-84.4027699078066,33.8089591035825],[-84.4027879454906,33.8089963286963],[-84.4028133065351,33.8090304489435],[-84.4029464264274,33.8092446497399],[-84.4031041590556,33.8095115648528],[-84.4032250224139,33.8097172781805],[-84.4032541637883,33.8097727925607],[-84.4032774863095,33.8098301908148],[-84.4032948192183,33.809889048598],[-84.4032322493692,33.8101206446706],[-84.4031958297036,33.8102228358756],[-84.4031899454789,33.8102355297156],[-84.4031817104293,33.8102472777277],[-84.4031713375941,33.8102577792547],[-84.4031590908689,33.8102667660011],[-84.4031452839397,33.8102740074453],[-84.4031302705821,33.8102793180709],[-84.4031144349546,33.8102825627959],[-84.4030663643594,33.8102923431214],[-84.4030207139714,33.8103082725269],[-84.4028210324835,33.8103580138018],[-84.4026641590296,33.8104042682431],[-84.4026419057878,33.8104124598959],[-84.4026213892854,33.8104233612762],[-84.4026030786991,33.8104367235347],[-84.4025785858456,33.8104608804025],[-84.4025586436254,33.810487796617],[-84.4025436921907,33.8105168789572],[-84.4025340581528,33.810547487533],[-84.4025234963715,33.8105797091238],[-84.4025066007049,33.8106099916612],[-84.4024838505313,33.8106374749574],[-84.4024558939483,33.8106613769446],[-84.402423522999,33.8106810189693],[-84.4023876596776,33.8106958429502],[-84.4023360833842,33.8107094472608],[-84.4022827492171,33.810716972402],[-84.4022286807655,33.8107182730549],[-84.4020228018037,33.8107390910443],[-84.4018189434133,33.8107530956056],[-84.4016354783151,33.8107687632928],[-84.4015914477459,33.8107752524538],[-84.4015490118035,33.8107870041769],[-84.4015090663266,33.8108037715103],[-84.4014724582515,33.8108251984972],[-84.4014399608039,33.8108508328457],[-84.4013845179908,33.8108967122342],[-84.4013239768596,33.810937856834],[-84.4013241023244,33.8109838117014],[-84.4013251663246,33.8109941181988],[-84.4013282710085,33.8110041331888],[-84.4013333292023,33.8110135773268],[-84.4013402019244,33.8110221857929],[-84.401348695175,33.8110297191181],[-84.4014632241173,33.8111122686818],[-84.4015815794499,33.8111909680343],[-84.4016753428993,33.8112553364771],[-84.4017634158341,33.8113250813901],[-84.4018324409909,33.8113792442403],[-84.4019064283519,33.8114286323879],[-84.4019579507741,33.8114571135965],[-84.4020126001025,33.8114811923907],[-84.4020973446308,33.8115166763502],[-84.4021794927734,33.8115561883535],[-84.4022146276805,33.8115730027851],[-84.4022509446142,33.8115879647711],[-84.4022920010395,33.8116217503756],[-84.4023276828494,33.8116595513468],[-84.4023574321322,33.8117007736688],[-84.4023807837327,33.8117447744595],[-84.4023973728202,33.8117908646605],[-84.4024069370876,33.8118383225572],[-84.4024093297477,33.811886406377],[-84.402404513076,33.8119343624164],[-84.4023925606187,33.8119814421678],[-84.4023736604489,33.8120269077232],[-84.4022591592782,33.8121491272994],[-84.402166532913,33.8122538761873],[-84.4021472540848,33.8122790815413],[-84.4021322245285,33.8123062281393],[-84.4021186546282,33.8123413929922],[-84.4021096706217,33.8123775670484],[-84.4021053772389,33.8124143371551],[-84.4021010686871,33.8124723843329],[-84.4020942115451,33.8125302596519],[-84.4020845796968,33.8125795520877],[-84.4020697086759,33.8126279294325],[-84.4020497173076,33.8126750028483],[-84.4020135948983,33.8127099321142],[-84.4019722499487,33.8127405614647],[-84.4019264090164,33.8127663512263],[-84.4018768809848,33.8127868454218],[-84.4018245387368,33.812801685331],[-84.4017703018688,33.8128106086218],[-84.4014133702039,33.8128505028206],[-84.4011681353458,33.8128875698116],[-84.4011034381722,33.8128981500848],[-84.4010546568688,33.812910151731],[-84.4010087399149,33.8129283990275],[-84.4009668245691,33.8129524389944],[-84.4007970190837,33.8130395809193],[-84.400636713168,33.8131377515572],[-84.4005949108018,33.8131597219055],[-84.4005498019901,33.8131765293731],[-84.4005022974896,33.8131878368174],[-84.4004533526406,33.8131934152101],[-84.4003717969684,33.8131956976466],[-84.4003257714737,33.8131932025294],[-84.4002805627062,33.8131855826959],[-84.4002369833385,33.8131729754614],[-84.4001958214408,33.8131556074522],[-84.4001180542884,33.8131202298126],[-84.4000374226293,33.8130896443818],[-84.3999543503171,33.8130640117473],[-84.3998692730142,33.8130434663274],[-84.3998430877765,33.8130364207792],[-84.3998182515558,33.8130265424088],[-84.3997720661367,33.8130080566954],[-84.399723430617,33.8129946428444],[-84.399673142749,33.8129865193477],[-84.3996220248953,33.8129838189953],[-84.3995709110625,33.8129865870972],[-84.3994919458476,33.812992071215],[-84.3994127114887,33.8129915093521],[-84.3993338690818,33.8129849065723],[-84.3980160354508,33.8129427069955],[-84.3979557094931,33.8129441275156],[-84.3978961424767,33.8129522178627],[-84.3978383882501,33.8129668345041],[-84.3977834690337,33.8129877203613],[-84.3977323548943,33.8130145039459],[-84.3976859519035,33.813046713808],[-84.3976450805324,33.8130837776744],[-84.3976104627427,33.8131250423088],[-84.3975827111928,33.813169776236],[-84.3975623163257,33.8132171887007],[-84.3975496409968,33.8132664404964],[-84.3975449064767,33.8133166611228],[-84.3975481989673,33.8133669622982],[-84.397548345533,33.8133704550004],[-84.3975477715366,33.8133739165921],[-84.397546496145,33.8133772442498],[-84.3975445558223,33.8133803405275],[-84.3975420075707,33.8133831133505],[-84.3975389278619,33.8133854805258],[-84.397535407239,33.813387370654],[-84.3975315503359,33.813388730342],[-84.397527471537,33.8133895169983],[-84.3975232906811,33.8133897078576],[-84.3975191330562,33.813389298177],[-84.3975151218334,33.8133882994473]]},"properties":{"FID":4,"Name":"Northside Trail","Status":"Completed","Implementa":"PATH Foundation","Type":"Main","FT":5630,"MILES":1.07,"Shape_Leng":5630.24127769,"Shape__Length":2068.2389129332219}},{"type":"Feature","id":5,"geometry":{"type":"MultiLineString","coordinates":[[[-84.3581455638925,33.7466825938614],[-84.3582302272671,33.7442022382077],[-84.3582207598478,33.7423505927155],[-84.3582547449874,33.742127039888]],[[-84.3582135856018,33.7420892656994],[-84.3582504544992,33.739693684051]]]},"properties":{"FID":5,"Name":"Bill Kennedy Way","Status":"Planning","Implementa":"Atlanta Beltline","Type":"Main","FT":2530,"MILES":0.48,"Shape_Leng":2530.39212712,"Shape__Length":930.96414065524289}},{"type":"Feature","id":6,"geometry":{"type":"LineString","coordinates":[[-84.4260221316921,33.774748280124],[-84.4261160921033,33.7758020709586],[-84.4261138104272,33.7762808423622],[-84.4261167468282,33.7763978208542],[-84.4261266649429,33.7765145322033],[-84.4261435401653,33.7766306843249],[-84.4261673295471,33.7767459896797],[-84.4261979739463,33.7768601616632],[-84.4262353969498,33.7769729155095],[-84.4262795070375,33.77708397009],[-84.426608365024,33.7778477972046],[-84.4266618150759,33.777962923646],[-84.4267220313265,33.7780756960208],[-84.4267888650432,33.7781858396293],[-84.4268621523802,33.7782930816062],[-84.4269417122453,33.7783971599419],[-84.4270273516826,33.778497818061],[-84.4271188572479,33.7785948093493],[-84.4272160068776,33.7786878944239],[-84.4273185601871,33.7787768465634],[-84.4274262660072,33.7788614444792],[-84.4275388591776,33.7789414831424],[-84.4277394056882,33.7790807048203],[-84.4279355120778,33.7792242707021],[-84.4281270430824,33.7793720810121],[-84.4283138666684,33.7795240341647],[-84.4284958561867,33.7796800249565],[-84.4286728839055,33.779839948187],[-84.428823658706,33.7799753010653],[-84.4289796192609,33.7801064942404],[-84.4291405999397,33.7802333873878],[-84.4292006267729,33.7802828387275],[-84.4292559474582,33.7803359805869],[-84.4293062371152,33.7803925016929],[-84.4293511999483,33.7804520690707],[-84.429429593848,33.7805718892396],[-84.4295009862477,33.7806947222545],[-84.4295652110537,33.7808202844615],[-84.4296221194209,33.7809482840543],[-84.4296715797606,33.781078423779],[-84.4297134755845,33.78121040184],[-84.4297477109039,33.7813439118887],[-84.4297742069904,33.7814786430303],[-84.4297928566157,33.7816123801447],[-84.4298042054953,33.7817466873361],[-84.4298082279084,33.7818812860515],[-84.4298049164928,33.7820158985994],[-84.4297942789975,33.7821502454513],[-84.4297763361402,33.7822840506564],[-84.4297511248247,33.7824170346216],[-84.4297186992545,33.7825489249289],[-84.4296791233468,33.782679447335],[-84.4296324815498,33.7828083320599],[-84.4296031318113,33.7828733828008],[-84.4295670345848,33.7829360224724],[-84.4295244712783,33.7829957644803],[-84.4294757719593,33.7830521437654],[-84.4289061124831,33.7836571795796],[-84.4287626044435,33.7838067651734],[-84.428614895331,33.7839534724345],[-84.4284630701962,33.7840972200192],[-84.4283072130119,33.784237926586],[-84.4282375354467,33.784304141767],[-84.4281739702734,33.7843745149849],[-84.4281168726393,33.7844486523774],[-84.4280665587654,33.7845261412297],[-84.4280233113418,33.7846065490612],[-84.4279873698205,33.7846894272522],[-84.4279589369044,33.7847743146369],[-84.4278979684723,33.7849770975337],[-84.4278318661056,33.7851787560841],[-84.4277997854064,33.7852839788304],[-84.4277749327708,33.7853905558774],[-84.4277573870832,33.7854981417307],[-84.4277472056191,33.7856063864321],[-84.4277444229813,33.785714940972],[-84.4277490467611,33.7858234509865],[-84.4277610618815,33.7859315648634],[-84.4277804295145,33.7860389328428],[-84.4278070881549,33.7861452052115],[-84.4278409493167,33.786250037722],[-84.4280255236845,33.7874962506888],[-84.4281677546959,33.788240989059],[-84.4286964152678,33.7894816019731],[-84.4293158640566,33.7904790167221],[-84.4293347044924,33.7905163742902],[-84.4293461916795,33.7905557572846],[-84.4293500342178,33.7905961636945],[-84.4293461328508,33.7906365667542],[-84.4293345891775,33.7906759383676],[-84.4293156949376,33.79071327618],[-84.4292899310182,33.7907476315321],[-84.4292579534797,33.7907781302276],[-84.4292205752667,33.7908039951142],[-84.4291787468453,33.7908245704697],[-84.4290120527865,33.7908955313013],[-84.4288486971968,33.7909717107682],[-84.4286889129847,33.7910530010925],[-84.4285329287121,33.7911392845888],[-84.4283809707647,33.7912304372651],[-84.428264563832,33.7913066633327],[-84.4281525048329,33.7913873035628],[-84.4280450351438,33.7914721879457],[-84.4279423842216,33.7915611320712],[-84.4278447717937,33.7916539470414],[-84.4277524078387,33.7917504331595],[-84.4276654893603,33.7918503844445],[-84.4275635169623,33.7919788812273],[-84.4274676815304,33.7921106307222],[-84.4273781336486,33.792245427951],[-84.4272950109337,33.7923830643556],[-84.4272184434302,33.7925233259835],[-84.4272136395373,33.7925310262861],[-84.4272075561075,33.7925380674806],[-84.4272003222899,33.7925443041288],[-84.4271920867185,33.7925496060793],[-84.4271830229199,33.7925538611611],[-84.4269460349426,33.7925511703924]]},"properties":{"FID":6,"Name":"NW Trail - Marietta Blvd","Status":"Planning","Implementa":"Atlanta Beltline","Type":"Main","FT":7479,"MILES":1.42,"Shape_Leng":7479.24973678,"Shape__Length":2750.134935241158}},{"type":"Feature","id":7,"geometry":{"type":"LineString","coordinates":[[-84.424253222866,33.7634245606797],[-84.4244244362203,33.7639355601843],[-84.4245304418471,33.7645255424489],[-84.4246348065212,33.7654439954232]]},"properties":{"FID":7,"Name":"NW Trail MARTA ROW","Status":"Planning","Implementa":"Atlanta Beltline","Type":"Main","FT":746,"MILES":0.14,"Shape_Leng":745.860635083,"Shape__Length":274.44196616431816}},{"type":"Feature","id":8,"geometry":{"type":"LineString","coordinates":[[-84.4252082651765,33.7566497347181],[-84.4247886442351,33.7578464073463],[-84.4244797932866,33.7587007002918],[-84.4242382090135,33.7598611832665],[-84.4238979254753,33.7613295901056],[-84.4242594260871,33.7634083648735]]},"properties":{"FID":8,"Name":"Lena-Boone","Status":"Planning","Implementa":"Atlanta Beltline","Type":"Main","FT":2516,"MILES":0.48,"Shape_Leng":2515.60753927,"Shape__Length":925.51548561884738}},{"type":"Feature","id":9,"geometry":{"type":"LineString","coordinates":[[-84.4269526699228,33.7925490230957],[-84.425703597658,33.7925790592185],[-84.4234216632488,33.7924689634895],[-84.4221132701419,33.7921358035242],[-84.4205932592604,33.7921926550426],[-84.4192906324846,33.792145443523],[-84.4176758516564,33.7922647687461]]},"properties":{"FID":9,"Name":"Westside - Blandtown","Status":"Planning","Implementa":"Atlanta Beltline","Type":"Main","FT":2840,"MILES":0.54,"Shape_Leng":2840.49872249,"Shape__Length":1040.8782369269084}},{"type":"Feature","id":10,"geometry":{"type":"LineString","coordinates":[[-84.3687512566947,33.8175688151347],[-84.3684615266102,33.8174601768094],[-84.368088352353,33.8174296700916],[-84.3677174305082,33.8174909849135],[-84.3671926963759,33.8175537660103],[-84.3667974365165,33.817649278298]]},"properties":{"FID":10,"Name":"Piedmont Connector","Status":"Planning","Implementa":"Atlanta Beltline","Type":"Main","FT":611,"MILES":0.12,"Shape_Leng":611.167877035,"Shape__Length":224.06679764172694}},{"type":"Feature","id":11,"geometry":{"type":"LineString","coordinates":[[-84.3582504544992,33.739693684051],[-84.3590281129602,33.7373434779146],[-84.3598050525061,33.7349667097492],[-84.3603664874467,33.7332991968328],[-84.3607798580894,33.7322273358432],[-84.3612207039739,33.7314211569856],[-84.3619282023656,33.7302136559353],[-84.3625893497144,33.7293754535729],[-84.3632339232217,33.7287342197657],[-84.3637682854958,33.7283220077148],[-84.364412819301,33.7278777343032],[-84.3654066637319,33.7273054039509],[-84.3663596028587,33.7269115610919],[-84.3671638029471,33.7266047308383],[-84.3683921182179,33.7262338031373],[-84.3711052821083,33.7253889409642],[-84.372895370609,33.7248210318173],[-84.3739473973516,33.7244912568096],[-84.3745257362724,33.7243859177094],[-84.3751915181669,33.7243249747814],[-84.3768713825457,33.7243204589663],[-84.378187736657,33.7242930028896],[-84.3797786627039,33.7243067664564],[-84.3808967380164,33.7243205137449],[-84.3814970809912,33.7243021879132],[-84.3821800396596,33.7242151420275],[-84.3826647212402,33.7241372575272],[-84.3832650680187,33.7239677472792],[-84.3840961971475,33.7236688889358],[-84.3850545126025,33.7232107690774],[-84.3860844193223,33.7226930781114],[-84.3875585275596,33.7219787678689],[-84.3884341925382,33.7215068803704],[-84.3894475449795,33.7210166429614],[-84.3903650965579,33.7205455795656],[-84.3913068418134,33.720192765805],[-84.3922485969089,33.7198536789249],[-84.393222079404,33.7195447025177],[-84.3934974386554,33.7194713790763],[-84.3941583117279,33.719370530195],[-84.3948412299869,33.7193612907737],[-84.3953534255027,33.7193841364823],[-84.3962432398702,33.719597940047],[-84.3970418591609,33.7198222998458],[-84.3976874689453,33.7199642252061],[-84.3980730060574,33.7200191412827],[-84.3988550959414,33.7201472915733],[-84.4003421310225,33.7202203581656],[-84.4020639054838,33.7202540323357],[-84.4035784841005,33.72031788897],[-84.405109581342,33.7203634094832],[-84.4068696206197,33.7204205941941],[-84.407844455603,33.7204478685641],[-84.4084227663407,33.7205164551369],[-84.4089680455321,33.7206216949406],[-84.4096154210313,33.7207926807038],[-84.4101497219227,33.7209895328215],[-84.4103865728114,33.7210673513244],[-84.4110429248503,33.721444139897],[-84.4112188889952,33.7216355672726],[-84.4113335186987,33.7217737593338],[-84.411436475425,33.721893563444],[-84.4115296545199,33.7220195415749],[-84.4116871207451,33.7222743428668]]},"properties":{"FID":11,"Name":"Southside Trail","Status":"Design","Implementa":"Atlanta Beltline","Type":"Main","FT":20137,"MILES":3.81,"Shape_Leng":20137.1996928,"Shape__Length":7382.6059061707938}},{"type":"Feature","id":21,"geometry":{"type":"LineString","coordinates":[[-84.4246348065212,33.7654439954232],[-84.4244259605053,33.7655882209307],[-84.4242878389261,33.765674643235],[-84.424154504047,33.7657661605538],[-84.4240262262774,33.7658625865983],[-84.4239032630546,33.7659637278938],[-84.4237858642304,33.7660693801622],[-84.4236742655995,33.7661793301381],[-84.4235686921377,33.7662933555624],[-84.4234693580076,33.7664112269851],[-84.4233764643911,33.7665327050647],[-84.4232901962667,33.7666575459848],[-84.4232107299532,33.7667854969299],[-84.4231382255626,33.7669162997079],[-84.4230728291595,33.7670496907448],[-84.4230146727582,33.7671854001834],[-84.4229638732532,33.7673231554924],[-84.4229205345623,33.7674626760507],[-84.4228847433345,33.7676036821743],[-84.4228565721699,33.7677458887967],[-84.4228481409186,33.7679060378878],[-84.4228468041924,33.7680663381532],[-84.422852561379,33.7682265704927],[-84.4228654064651,33.7683865149146],[-84.4228853226494,33.7685459541534],[-84.422912280169,33.7687046691661],[-84.42294624495,33.7688624436223],[-84.4229871688852,33.7690190621213],[-84.4230349963086,33.769174309277],[-84.4230896618524,33.7693279751323],[-84.4236886322436,33.771476343304],[-84.4237946285937,33.7718318140825],[-84.4238280113966,33.7719575285021],[-84.4238535781337,33.772084515198],[-84.4238712608174,33.7722124343943],[-84.4238810108899,33.7723409453715],[-84.4238828035396,33.7724697055557],[-84.4238766333829,33.7725983705277],[-84.4238625177173,33.7727265985246],[-84.4238404921922,33.772854046842],[-84.4238106172983,33.7729803754272],[-84.4237729718927,33.7731052477947],[-84.4237276564356,33.7732283301171],[-84.4236747930019,33.7733492948328],[-84.4236145209538,33.7734678179492],[-84.4235470012801,33.773583585346],[-84.4234724144173,33.7736962864681],[-84.4233909591921,33.7738056215412],[-84.4233028528137,33.7739112988669],[-84.4232083308764,33.7740130357246],[-84.4231076452115,33.7741105619829],[-84.4230010638765,33.774203616493],[-84.4228888711687,33.7742919515972],[-84.4227713665398,33.7743753313281],[-84.4257837454976,33.7743896632203],[-84.4258074637291,33.7743913436879],[-84.4258305704577,33.7743961180978],[-84.4258524898547,33.7744038677401],[-84.4258726782589,33.7744143999024],[-84.4258906317474,33.7744274523619],[-84.4259059034292,33.7744426996605],[-84.4259181142751,33.7744597639021],[-84.425926959606,33.7744782183452],[-84.4259322188652,33.774497605415],[-84.4259463413762,33.7745621790351],[-84.4259661097075,33.7746257102037],[-84.4259914191889,33.7746878565107],[-84.4260221316921,33.774748280124]]},"properties":{"FID":21,"Name":"NW Trail Kudzuline","Status":"Planning","Implementa":"Atlanta Beltline","Type":"Main","FT":4652,"MILES":0.88,"Shape_Leng":4652.49255889,"Shape__Length":1709.6385716423918}},{"type":"Feature","id":23,"geometry":{"type":"LineString","coordinates":[[-84.3976043280933,33.8131337600887],[-84.3975832925836,33.8130818294959],[-84.3975564033894,33.8130318159362],[-84.3975239080324,33.8129841787823],[-84.3974861036546,33.8129393529685],[-84.3974433381027,33.8128977507933],[-84.3973960012626,33.8128597529185],[-84.3971293184403,33.8128402583828],[-84.3969947286907,33.8128304194584],[-84.3969874338693,33.8128306629998],[-84.3969790461047,33.8128289619276],[-84.3969619088562,33.8128203705819],[-84.3969452357505,33.8128056075016],[-84.3969292068737,33.8127849617788],[-84.39691427682,33.8127591800298],[-84.3969002865318,33.8127281597643],[-84.3968873131514,33.8126920685445],[-84.3968753980595,33.8126510307208],[-84.3968592924027,33.812595248884],[-84.3968397301244,33.8125378135643],[-84.3968166785837,33.8124786337548],[-84.3967900583753,33.8124174995179],[-84.3967603472433,33.8123553305408],[-84.396726700752,33.8122902006767],[-84.3966416231479,33.812139794335],[-84.3965453478968,33.8119748778689],[-84.3965234448817,33.8119435513164],[-84.3964960631297,33.8119153871235],[-84.3964638449509,33.8118910486032],[-84.3964275490607,33.8118711059822],[-84.3963880278777,33.8118560292305],[-84.3963287625654,33.8118413841503],[-84.3962677387167,33.8118331863807],[-84.3962059612265,33.8118315710993],[-84.3961444433387,33.811836564371],[-84.3960841958486,33.8118480840697],[-84.395635667821,33.8118676401659],[-84.3943466416681,33.8119128039383],[-84.3942145040534,33.8119207243885],[-84.3940831646786,33.8119351864726],[-84.3939530867718,33.8119561406506],[-84.3938247313353,33.8119835121426],[-84.3936985517525,33.8120172036433],[-84.3935749948733,33.8120570971233],[-84.3927015537293,33.812222589439],[-84.3919707191603,33.8123304082554],[-84.3908514104895,33.8123412378398],[-84.3895565164054,33.8123537541966],[-84.3895033376782,33.8123570718622],[-84.3894510795985,33.8123659419834],[-84.389400572442,33.8123802251103],[-84.3893526160175,33.8123996952911],[-84.3893079721106,33.812424041889],[-84.3892673483074,33.8124528795294],[-84.3892004995992,33.8125106910895],[-84.3891387093312,33.8125722984369],[-84.3890822856418,33.8126373953655],[-84.3890315106951,33.8127056549778],[-84.3889866363808,33.8127767378078],[-84.3889478886276,33.8128502891075],[-84.3889154609267,33.8129259406624],[-84.388889514341,33.8130033143973],[-84.3889053621205,33.8130862382008],[-84.3889245774538,33.8131677295287],[-84.3889450087936,33.813238660384],[-84.3889664018615,33.8132984460562],[-84.3889881046779,33.8133455918894],[-84.3890103016631,33.8133808242781],[-84.3890215445207,33.8133939076352],[-84.3890328724169,33.8134039531919],[-84.3890442734524,33.8134109546581],[-84.3890557411264,33.8134149048325],[-84.3890685990522,33.8134184611846],[-84.3890784416997,33.8134230760951],[-84.3890853025916,33.8134287639308],[-84.3890892087878,33.8134355462828],[-84.3890901765347,33.8134434402533],[-84.3890882200092,33.8134524981124],[-84.3890754591639,33.8134743526816],[-84.3890541539554,33.8134982414408],[-84.3890221795191,33.8135278667686],[-84.3888794860859,33.8136454461203],[-84.3888212480942,33.8136930776962],[-84.3886881109108,33.8137966018839],[-84.3886346858557,33.813839991479],[-84.3885835378749,33.8138863478779],[-84.3885463762052,33.8139273161055],[-84.3885376095749,33.8139365791579],[-84.3885271068167,33.8139444829451],[-84.3885151633275,33.8139508051304],[-84.3885021199836,33.8139553665746],[-84.3884883447921,33.8139580367783],[-84.3884742285883,33.8139587411035],[-84.3884601699084,33.8139574589973],[-84.3884465685178,33.81395422761],[-84.3884338081187,33.8139491382197],[-84.3884222520245,33.813942334437],[-84.3884122258699,33.8139340095305],[-84.3880232174304,33.8136705106162],[-84.3877083619412,33.8134572372405],[-84.387682725868,33.8134370042541],[-84.3876610387967,33.8134137752299],[-84.3876437978935,33.8133880812504],[-84.3876313956948,33.8133605112909],[-84.3876241168221,33.8133316950937],[-84.3876221271537,33.8133022923676],[-84.3875587771691,33.8129897095002],[-84.3875490151148,33.8129537792462],[-84.3875345507194,33.812918970043],[-84.3875155622385,33.8128857107534],[-84.3874922829613,33.8128544094035],[-84.3874469007381,33.8128060929735],[-84.3873955510173,33.812762134944],[-84.3873388302886,33.812723047277],[-84.3872773986161,33.8126892832146],[-84.3872119688332,33.8126612354946],[-84.3871433022079,33.8126392309495],[-84.3870721976258,33.8126235242137],[-84.3870622725054,33.8126224743991],[-84.3870522729728,33.8126227348087],[-84.3870424452957,33.812624301396],[-84.3870330345692,33.8126271340508],[-84.3870242706896,33.8126311629356],[-84.3870163726756,33.8126362884782],[-84.3870095335506,33.8126423832019],[-84.3870039235989,33.8126492980309],[-84.3869996817227,33.8126568614046],[-84.3865308791314,33.8128723826311],[-84.3863164573497,33.8129674230885],[-84.3860986573587,33.813056952009],[-84.3859822475268,33.8130999088033],[-84.385863314189,33.813137744113],[-84.3857421800721,33.8131703545699],[-84.3856191755029,33.81319765122],[-84.3854946330112,33.813219561336],[-84.3847652216187,33.8132387941898],[-84.3847118402783,33.813242584415],[-84.384659244304,33.8132510915441],[-84.3846080307799,33.8132642189489],[-84.3845587804584,33.8132818186366],[-84.3845120512771,33.8133036903605],[-84.3839206600845,33.8135384401452],[-84.3838417040547,33.8135674030178],[-84.3837608195117,33.8135923839576],[-84.3836782935688,33.8136132940943],[-84.3835944209357,33.8136300580697],[-84.383204633154,33.8136982077589],[-84.3831486149139,33.8137046428592],[-84.3830920699963,33.8137043976591],[-84.3830361358547,33.8136974755727],[-84.3829088179706,33.8136768482756],[-84.382780372598,33.8136618689315],[-84.3826511573595,33.8136525801898],[-84.3826000585491,33.8136479549479],[-84.3825497368649,33.8136392168175],[-84.3818753333195,33.8138463403743],[-84.3808442284327,33.8141085440872],[-84.380717916884,33.8141424371364],[-84.3805929083789,33.8141795430669],[-84.3804693194773,33.8142198265164],[-84.3800570491137,33.8143620376034],[-84.3796462526547,33.8145071904453],[-84.3793430895978,33.8146134622288],[-84.3790381420886,33.8147161162298],[-84.3787314727567,33.814815130688],[-84.3779933964626,33.8150774772401]]},"properties":{"FID":23,"Name":"Northside Trail Extension","Status":"Planning","Implementa":"Atlanta Beltline","Type":"Main","FT":7152,"MILES":1.35,"Shape_Leng":7151.58058293,"Shape__Length":2623.8770362940591}},{"type":"Feature","id":24,"geometry":{"type":"LineString","coordinates":[[-84.370205708763,33.8209550778373],[-84.370343658811,33.8206530251579],[-84.3705276739881,33.8202850841642],[-84.3707168776937,33.8198127435622],[-84.3708586446161,33.8195005314128],[-84.3708826156464,33.8194387866983],[-84.3708992466961,33.8193753833838],[-84.3709083782636,33.8193109276421],[-84.3709099254094,33.8192460354395],[-84.3709038701808,33.8191813271384],[-84.3708902734807,33.8191174220673],[-84.3706493092389,33.8188329007614],[-84.3700826308638,33.8183523199216],[-84.3699449013625,33.8182405111836],[-84.3698014504445,33.8181338330611],[-84.3696525508032,33.8180324879561],[-84.3694984891532,33.8179366710346],[-84.369339558656,33.8178465648302],[-84.3691760621652,33.8177623410413],[-84.3690083133066,33.8176841605302],[-84.3688366310777,33.8176121733319],[-84.3688234728562,33.8176057796881],[-84.3688117699451,33.8175976497923],[-84.3688018491033,33.8175880085211],[-84.3687939864253,33.8175771259161],[-84.3687884008267,33.8175653036705],[-84.3687852464732,33.8175528706326],[-84.3687846116766,33.8175401728901],[-84.3687865145507,33.8175275638585],[-84.3687909019082,33.8175153943652],[-84.3688555655615,33.8173859202035],[-84.3689261256701,33.8172586084017],[-84.3690024778754,33.817133647565],[-84.3690845102464,33.8170112209008],[-84.3691721032824,33.81689150712],[-84.3692701413003,33.8167697429062],[-84.3693751453653,33.8166520949001],[-84.369486868748,33.8165388402955],[-84.3696050474192,33.8164302472976],[-84.3697294021994,33.8163265706121],[-84.3698596409284,33.8162280550479],[-84.3699954552197,33.8161349337196],[-84.370008820416,33.816127510974],[-84.3700233802162,33.8161218679103],[-84.3700387989897,33.8161181376234],[-84.3700547172286,33.8161164054607],[-84.3700707666767,33.8161167117016],[-84.3700865735658,33.8161190497495],[-84.3702834733856,33.816084725579],[-84.3707228028956,33.8160117407003],[-84.3711637025597,33.815945681707],[-84.3716060159091,33.8158865731867],[-84.3720495843074,33.8158344361262],[-84.3724942523539,33.8157892888041],[-84.3726404833046,33.8157788624014],[-84.3727871704313,33.8157748926532],[-84.3731002648621,33.815776368882],[-84.3734132335282,33.8157839360485],[-84.3737259058173,33.815797591735],[-84.3740381121841,33.8158173281138],[-84.374349681996,33.8158431346557],[-84.374538296371,33.8158588049102],[-84.3747272899445,33.8158708965044],[-84.3749165622168,33.8158794023933],[-84.3750430959573,33.8158856904581],[-84.3751692992469,33.81589557111],[-84.3752960009355,33.815903834138],[-84.3754230790691,33.8159051915926],[-84.3755499934988,33.8158996380759],[-84.3756762041485,33.8158871979465],[-84.3758011764093,33.8158679226051],[-84.3759243800739,33.8158418959066],[-84.376045291477,33.815809226041],[-84.3761633967571,33.8157700536431],[-84.3764986859596,33.8156462178469],[-84.3768322412324,33.8155191625116],[-84.3771640172128,33.8153889021549],[-84.3774410894477,33.8152823295772],[-84.3777215359905,33.8151820972904],[-84.3779134510408,33.8151456515076],[-84.3779296511701,33.8151414049583],[-84.3779448253123,33.8151350449023],[-84.3779585806764,33.8151267352109],[-84.3779705602449,33.815116691088],[-84.3779804546402,33.8151051727381],[-84.3779880075077,33.8150924781444],[-84.3779930230642,33.8150789376451],[-84.377995370385,33.8150649004019],[-84.3779343957206,33.8142113387992],[-84.3779014301765,33.8133704918874],[-84.377894002378,33.8132327303237],[-84.3778825276656,33.8130951623272],[-84.3778670149038,33.8129578708331],[-84.3778561003315,33.8129009604619],[-84.3778381072826,33.8128453172999],[-84.3778132349402,33.8127915514176],[-84.3777817558946,33.8127402556279],[-84.3777440161091,33.8126919919612],[-84.3777004305997,33.812647291673],[-84.3776514780087,33.8126066453361],[-84.3775976962801,33.8125705010442],[-84.3775396783165,33.8125392554035],[-84.3774780590109,33.8125132508504],[-84.3774135174047,33.8124927747463],[-84.3769095885675,33.8125265276843],[-84.3768744804802,33.8125311895247],[-84.3768406590225,33.8125403312481],[-84.3768089413376,33.8125537323632],[-84.3767800892305,33.812571069686],[-84.3767548005466,33.8125919254693],[-84.3766761110313,33.8126629622533],[-84.376592057269,33.8127295801297],[-84.3765029950302,33.8127914980706],[-84.3764093006588,33.8128484539478],[-84.376311368916,33.8129002063402],[-84.376209616227,33.8129465372335],[-84.3761044709573,33.8129872511356],[-84.375996378813,33.8130221750667],[-84.3758857952862,33.8130511612783],[-84.3757731899772,33.813074088147],[-84.3756590368661,33.8130908574864],[-84.3755438197264,33.8131013999477],[-84.3748700808859,33.8129577102521],[-84.3739940635907,33.8127297329914],[-84.3726375933246,33.812312811982],[-84.3725491674231,33.8122824541944],[-84.372463705514,33.8122466661895],[-84.3723816855237,33.8122056491452],[-84.3723035659977,33.812159631322],[-84.372229782866,33.8121088707735],[-84.3721607494324,33.8120536508373],[-84.3720968509738,33.8119942801445],[-84.3720384447353,33.8119310908158],[-84.3719858577637,33.8118644357602],[-84.3719393825853,33.8117946877799],[-84.3718992804373,33.8117222359586],[-84.3718976654062,33.8117180829555],[-84.3718968784674,33.8117137671798],[-84.371896941493,33.8117094013011],[-84.3718978526003,33.8117051016347],[-84.3718995861388,33.8117009827327],[-84.3719020980807,33.8116971528657],[-84.3719053216996,33.8116937140308],[-84.3719091708007,33.8116907574378],[-84.3719135429568,33.8116883617004],[-84.3719183227402,33.8116865892241],[-84.3719233849673,33.8116854880045],[-84.371928593608,33.8116850871206],[-84.3719338104263,33.8116853967206],[-84.373301859172,33.8111500832642],[-84.3773706434869,33.8096680625164],[-84.3774479786154,33.8096362925002],[-84.3775215017646,33.8095987412794],[-84.377590593707,33.8095557254962],[-84.377654674214,33.8095076068091],[-84.3777132042102,33.8094547891844]]},"properties":{"FID":24,"Name":"Armour","Status":"Planning","Implementa":"Atlanta Beltline","Type":"Main","FT":9567,"MILES":1.81,"Shape_Leng":9566.51872801,"Shape__Length":3511.7034692303764}},{"type":"Feature","id":25,"geometry":{"type":"LineString","coordinates":[[-84.3777132042102,33.8094547891844],[-84.3776895238587,33.8092512477136],[-84.3776542546435,33.8090678138494],[-84.3776148892766,33.8085329627895],[-84.3776193700823,33.8082646844341],[-84.3775366993485,33.8079419936998],[-84.3774958150319,33.8075579798748],[-84.3774342991787,33.8072458382146],[-84.3773436357666,33.8069334902228],[-84.3773138253353,33.8068066504879],[-84.3772412551989,33.8066061966049],[-84.3770214862311,33.806021248152],[-84.3765290190671,33.8051063420596],[-84.3755369783477,33.8033832590975],[-84.3746023861469,33.8017796681009],[-84.374160128898,33.8010908700098],[-84.3737716268215,33.8004097017285],[-84.3729524593938,33.7989734000729],[-84.3719299526701,33.7971804953032],[-84.3710471140081,33.7955413374213],[-84.3708875412703,33.7952417365676],[-84.3707370546794,33.7949591931918],[-84.370496910473,33.794330539167],[-84.370364833537,33.7940362840058],[-84.3702485123306,33.7931802759368],[-84.3701553196917,33.7924944618537],[-84.3701456172722,33.7924230599875],[-84.3701442053806,33.7923626175243],[-84.3702380358039,33.791037995115],[-84.3703307348589,33.7903878841799],[-84.3704177516913,33.7897776092779],[-84.3707224989512,33.7872680060042],[-84.37074755775,33.7871618565353],[-84.3707832395168,33.7868115477862],[-84.3707761905349,33.7862409084327],[-84.3707716871761,33.7861096409671],[-84.3707614256138,33.7859786003205],[-84.3707454203248,33.7858479604862],[-84.3707236933527,33.7857178990506],[-84.3706786241017,33.7855010003572],[-84.3706258501672,33.7852853171765],[-84.3705622736967,33.7850544905583],[-84.3704933798247,33.7848247303178],[-84.3704191925497,33.7845961220633],[-84.3702190544541,33.784254062182],[-84.369242133213,33.7829526831565],[-84.3686310417424,33.7822165931273]]},"properties":{"FID":25,"Name":"NE Trail","Status":"Planning","Implementa":"Atlanta Beltline","Type":"Main","FT":10567,"MILES":2,"Shape_Leng":10566.8285938,"Shape__Length":3887.9282188537463}},{"type":"Feature","id":26,"geometry":{"type":"LineString","coordinates":[[-84.3685378452483,33.7818994617681],[-84.3685003611416,33.7818946397394],[-84.368500201256,33.7818946066398],[-84.3684748747545,33.7818876205911],[-84.3684510926423,33.7818775375447],[-84.368429394266,33.7818645847375],[-84.3684102716214,33.7818490580093],[-84.3683941596043,33.7818313082945],[-84.3682374380032,33.7816285711306],[-84.3680767737912,33.7814207575859],[-84.3679162624947,33.7812133583337],[-84.3678442098097,33.7811212792612],[-84.3677894831614,33.7810526986979],[-84.3677590959995,33.7810147255801],[-84.3677254827339,33.7809786980647],[-84.3676888208969,33.7809448079116],[-84.3675796698238,33.7808420423238],[-84.3675359810965,33.7808008087939],[-84.3674773970803,33.7807452668365],[-84.3674224913327,33.7806871635865],[-84.3673714218962,33.7806266701055],[-84.3672273931339,33.7804419611268],[-84.3670663808253,33.7802342847356],[-84.3670127369195,33.7801650835243],[-84.3668890838,33.7800027011095],[-84.3668208901246,33.779908298813],[-84.3666757752647,33.779692424436],[-84.366531089094,33.7794776419868],[-84.3663857331062,33.7792614565714],[-84.3663217693347,33.7791649273566],[-84.3661968594041,33.7789701652312],[-84.3661299573104,33.7788532750542],[-84.3660377966753,33.7786770744198],[-84.3659654081589,33.7785239817728],[-84.3658990995834,33.7783674827411],[-84.3658402908471,33.7782090068658],[-84.3657860492234,33.7780503648982],[-84.3657355086189,33.7778924373521],[-84.3656915317938,33.7777587473206],[-84.3656394833995,33.7775990576258],[-84.3655793549367,33.7774138551612],[-84.3655273815725,33.7772551471875],[-84.3654752338321,33.7770956541294],[-84.3654237884159,33.7769367631188],[-84.3653707179236,33.7767693288407],[-84.365340499334,33.7766671526878],[-84.365292105254,33.7764781261894],[-84.3652523479095,33.7763161948416],[-84.3652073323104,33.7761279617258],[-84.3651682303631,33.7759663637996],[-84.3651291378199,33.7758045656747],[-84.365090271606,33.7756420575686],[-84.3650508069384,33.7754802924675],[-84.3650122584212,33.775318707109],[-84.3649659421023,33.7751301522699],[-84.3649210745159,33.7749418818053],[-84.3648788594209,33.7747669839728],[-84.3648505332988,33.7746458554981],[-84.3648226249645,33.7745096624368],[-84.3647911841327,33.7743463325936],[-84.3647644586634,33.7741826426231],[-84.3647353903642,33.7739917328086],[-84.3647002987967,33.7738008858438],[-84.3646661480691,33.773638791053],[-84.3646266525873,33.7734750791419],[-84.3645665392877,33.7732285095495],[-84.3645500942294,33.773173800195],[-84.3645351402495,33.7731336627601],[-84.3645104405487,33.7730561530186],[-84.3644563953348,33.7728414082776],[-84.3644119483357,33.7726594313169],[-84.3643687415385,33.7724847476199],[-84.3643240595294,33.7723032335406],[-84.3643029737543,33.7722124988273],[-84.3642760517062,33.7721228473222],[-84.3642433728196,33.7720345412754],[-84.3641902364374,33.7719042761867],[-84.3641224776909,33.771749213768],[-84.364054562483,33.7715945536952],[-84.3639748847,33.7714135119893],[-84.3639695798305,33.7714015005354],[-84.36396640178,33.7713889762474],[-84.3639654170035,33.7713761995969],[-84.3639666466269,33.7713634383412],[-84.3639700642658,33.7713509576083],[-84.363981474817,33.7713244596242],[-84.3639874573336,33.7712967467743],[-84.3639878473203,33.7712685893339],[-84.3639826336166,33.7712407681525],[-84.363873786688,33.7709934023273],[-84.3638655507249,33.7709800232356],[-84.3638548517759,33.7709679203108],[-84.363841969106,33.7709574059797],[-84.3638272337134,33.7709487538152],[-84.3638110272215,33.7709421859155],[-84.3638037568702,33.770939821673],[-84.3637918416965,33.7709350186643],[-84.3637809703576,33.7709287208501],[-84.3637714120354,33.7709210810817],[-84.363763398209,33.7709122892385],[-84.3637571280236,33.7709025595963],[-84.3637279298218,33.7708472618588],[-84.3636786896063,33.7707459351651],[-84.3635838912191,33.7705721233253],[-84.3634916503175,33.7704268680901],[-84.3633961711737,33.77028318682],[-84.3632804964994,33.7701162632745],[-84.3631799931999,33.7699753146277],[-84.3630579926585,33.7698126233773],[-84.3629149447206,33.7696293581863],[-84.3627967288468,33.7694840156693],[-84.3627186908129,33.7693914019177],[-84.362628836264,33.7692868500537],[-84.3624923974659,33.76913303538],[-84.3623718076291,33.7690028043103],[-84.3622493601321,33.7688739988719],[-84.3621035199661,33.7687248033963],[-84.3619541347882,33.7685793894771],[-84.3618033370159,33.7684335502223],[-84.3616527004675,33.7682876447035],[-84.3615032740061,33.7681419210233],[-84.3613527534607,33.7679957787132],[-84.3612025658327,33.7678500639756],[-84.3610508616792,33.7677033091278],[-84.3609323016879,33.7675880507828],[-84.3608309478626,33.7674906035683],[-84.3606863798051,33.7673504425492],[-84.3606512164372,33.7673151250487],[-84.3605243203659,33.767187663801],[-84.3604043085699,33.7670550972709],[-84.3603112510483,33.7669410912524],[-84.3601888826661,33.7667770812296],[-84.3600762400629,33.7666084213406],[-84.3599743160185,33.766434450948],[-84.3598844672805,33.7662560218202],[-84.359806384991,33.7660745617846],[-84.3597485481958,33.7659160973607],[-84.35969885156,33.7657556644879],[-84.3596523350431,33.7655651438403],[-84.3596181199334,33.7653743686076],[-84.3595978936131,33.7652093948617],[-84.3595876234342,33.7650435688122],[-84.3595832469711,33.7649063051555],[-84.3595809115531,33.764823775913],[-84.3595786427708,33.764631253799],[-84.3595861685887,33.7644650978647],[-84.3596044390184,33.7643002767105],[-84.359626816972,33.7641575540784],[-84.3596556418531,33.7640234447787],[-84.3596910911444,33.7638904476698],[-84.359733102714,33.7637587909618],[-84.359835557123,33.7634725809002],[-84.3599037806475,33.7632888865109],[-84.3599711983843,33.7631339750439],[-84.3600489503961,33.762980034658],[-84.3601504758562,33.7628063981902],[-84.3602474913212,33.7626614214764],[-84.360353175139,33.7625207509076],[-84.3604661750743,33.7623855472107],[-84.3606031707164,33.7622302628361],[-84.3607424680759,33.7620767004541],[-84.3607632423401,33.7620545357825],[-84.3608890550485,33.7619274561863],[-84.3610203864534,33.7618034694617],[-84.3611377168693,33.7617047329437],[-84.3612641508413,33.7616151427702],[-84.3614151100297,33.761510139666],[-84.361534515346,33.7614165722855],[-84.3616054304058,33.7613597760058],[-84.3617124721429,33.7612702998476],[-84.3618111449241,33.7611859456005],[-84.3618803473116,33.761127166426],[-84.361956451309,33.7610723363598],[-84.3621811854416,33.7609231715559],[-84.3623175143303,33.7608326828054],[-84.3624722916035,33.7607301969811],[-84.3626269479331,33.7606273820498],[-84.3627813281774,33.7605253220473],[-84.3629295788317,33.7604262164002],[-84.3630811967278,33.7603188469626],[-84.3632277819604,33.760207394545],[-84.3633694775424,33.7600916136872],[-84.3635061814735,33.7599712746464],[-84.3636376160012,33.7598471821582],[-84.3637836395475,33.7596971003833],[-84.3639086545101,33.7595583876058],[-84.3640675705999,33.7593640118426],[-84.3641017714868,33.7593188735114],[-84.3642381475604,33.7591271862399],[-84.3643306916064,33.7589817661881],[-84.3644311001834,33.7588103387592],[-84.3645156924605,33.7586519501784],[-84.364580318611,33.7585177028959],[-84.3646278029263,33.7584090936702],[-84.3646989305737,33.7582293537219],[-84.3647564824148,33.7580613822729],[-84.3648089028402,33.7578815009559],[-84.3648400719129,33.7577525386224],[-84.3648702042969,33.7576187567944]]},"properties":{"FID":26,"Name":"Eastside Trail","Status":"Completed","Implementa":"Atlanta Beltline","Type":"Main","FT":10130,"MILES":1.92,"Shape_Leng":10129.6490083,"Shape__Length":3724.0587252058835}},{"type":"Feature","id":27,"geometry":{"type":"MultiLineString","coordinates":[[[-84.364870045157,33.75762185632],[-84.3649105285599,33.7574039368928],[-84.3649234593874,33.7573379304306],[-84.3649500206579,33.7572023216355],[-84.3649720070122,33.7570900848281],[-84.3649765841215,33.7570667126259],[-84.3650031453921,33.7569311034018],[-84.365019462447,33.7568478108015],[-84.3650297088557,33.7567954939632],[-84.3650399684234,33.7567431150974],[-84.3650562723194,33.75665988431],[-84.3650828357831,33.7565242744423],[-84.3651093970536,33.7563886643602],[-84.3651359605173,33.7562530577103],[-84.365162523981,33.7561174471991],[-84.3651890852515,33.7559818401202],[-84.365212124319,33.7558642226409],[-84.3652120914217,33.755864218994],[-84.3652115365541,33.7558640950018],[-84.365211016777,33.7558638944262],[-84.3652105474423,33.7558636209139],[-84.365210139516,33.7558632817587],[-84.3652098105431,33.7558628915479],[-84.3652095671032,33.7558624575751],[-84.3652094157756,33.7558619944277],[-84.3652093653331,33.755861516693],[-84.3652094135825,33.7558610389582],[-84.3652095627168,33.7558605758108],[-84.3652098039636,33.755860141838],[-84.3652101307433,33.7558597479804],[-84.3652105364766,33.7558594088252],[-84.3652110058112,33.7558591353129],[-84.3652115255884,33.7558589310904],[-84.3652120782628,33.7558588070982],[-84.3652126506756,33.7558587633362],[-84.3652131572939,33.7558587998045],[-84.3652154776493,33.7558462072989],[-84.365221684271,33.7558125324574],[-84.3652405102925,33.7557103955682],[-84.365240604598,33.7557098886579]],[[-84.3617225620145,33.7526349048302],[-84.3617214084163,33.7526352038815],[-84.3617214500862,33.7526352841148],[-84.3617215093013,33.7526353570542],[-84.3617215816753,33.7526354226996],[-84.3617216650151,33.7526354737571],[-84.3617217571275,33.7526355138737],[-84.3617218580126,33.7526355394025],[-84.3617219764428,33.7526355466965],[-84.361722094873,33.7526355394025],[-84.361722195758,33.7526355175207],[-84.3617222900636,33.7526354774041],[-84.3617223755966,33.7526354263466],[-84.3617224501637,33.7526353643481],[-84.3617225093789,33.7526352914087],[-84.3617225532419,33.7526352148224],[-84.3617225795597,33.7526351309422],[-84.3617225883324,33.752635043415],[-84.3617225795597,33.7526349558877],[-84.3617225620145,33.7526349048302]],[[-84.3582888461465,33.7466682149275],[-84.3582970200261,33.746673207973],[-84.3582898857008,33.7467231420597],[-84.3582810078193,33.7468018307684],[-84.3582738734941,33.7468517684274],[-84.3582525209609,33.7470227605578],[-84.3581972579029,33.7474192328192],[-84.3581901455092,33.7474782479667],[-84.3581722471913,33.7475735926671],[-84.3581579017804,33.7476386693215],[-84.3581220371568,33.7477990940234],[-84.3580798365155,33.7479610429406],[-84.3580102017289,33.7482070038237],[-84.3579543552923,33.7484150008586],[-84.3577984901338,33.7489040344386],[-84.357607900791,33.7495306813404],[-84.3574964228469,33.7498969806294],[-84.3573885372868,33.7502511737335],[-84.3572932930579,33.7505887019847],[-84.3572287661236,33.7508929022494],[-84.3571875699461,33.7511017498221],[-84.3571643861305,33.7512651804885],[-84.3571359541008,33.7515118321213],[-84.3571130926786,33.7518220174882],[-84.3570731093145,33.7525785409316],[-84.3576165089148,33.7525973702342],[-84.3582667589072,33.7526099778049],[-84.3591198667378,33.7526252950708],[-84.3601544798734,33.752650178328],[-84.3602934774957,33.7526495619907],[-84.3603759817014,33.752653894587],[-84.3604418705835,33.7526587486993],[-84.3605991722569,33.7526694087812],[-84.3609642224987,33.7526931249969],[-84.3610841265349,33.7527008675029],[-84.3611333891274,33.7527022788782],[-84.3611939245241,33.7527011920827],[-84.3612520847365,33.7527001089343],[-84.3612645440362,33.7526985990909],[-84.3613766974712,33.7526914838627],[-84.3614134876052,33.7526889455751],[-84.3615268121838,33.752673894549],[-84.361565374385,33.752667388362],[-84.361668211308,33.7526460244329],[-84.3616715756041,33.7526453351561],[-84.3616945313318,33.7526406488036],[-84.3617105939811,33.7526373665331],[-84.3617198688232,33.7526354737571],[-84.3617213974505,33.7526351637649],[-84.3617219830222,33.752635043415],[-84.3617225620145,33.7526349048302],[-84.3617248801768,33.7526343504912],[-84.3618302414184,33.7526091462961],[-84.3619081970257,33.7525904993445],[-84.3619096905626,33.7525901528824],[-84.3619096686311,33.7525900799431],[-84.3619096620516,33.7525899924158],[-84.3619096730174,33.7525899048885],[-84.3619097037215,33.7525898210083],[-84.3619097497778,33.7525897407749],[-84.361909811186,33.7525896714825],[-84.3619098857532,33.752589609484],[-84.3619099734793,33.7525895620734],[-84.3619100677849,33.7525895256037],[-84.361910170863,33.7525895037219],[-84.3619102761344,33.752589496428],[-84.3619103792125,33.7525895037219],[-84.3619104800975,33.7525895292507],[-84.3619105744031,33.7525895657204],[-84.3619106599361,33.752589616778],[-84.3619107345032,33.7525896787764],[-84.3619107937184,33.7525897517158],[-84.3619108375814,33.7525898283022],[-84.3619108485472,33.7525898611249],[-84.361913175482,33.7525892921977],[-84.3619882777979,33.752570991704],[-84.3620654614156,33.7525521842774],[-84.3622130759342,33.7525133221472],[-84.3630129998155,33.7523236757206],[-84.3633768876865,33.7522386900903],[-84.3639427605209,33.7535564702865],[-84.3645288695739,33.7534123873289],[-84.3647448314985,33.753360932718],[-84.3648428895422,33.7533374646788],[-84.3648996044671,33.7533237996031],[-84.3649035411759,33.7533228550461],[-84.3649295738967,33.7533165932532],[-84.3649786983206,33.753304788113],[-84.3649984454662,33.7533000507393],[-84.3650258905772,33.7532934680141],[-84.3650273819209,33.7532931215549],[-84.3650279609132,33.7532929720304],[-84.3650280771502,33.7532934680141],[-84.3650285925411,33.7532955941797],[-84.3650348759232,33.7533216697912],[-84.3650672380822,33.7534403410754],[-84.365082072566,33.7535018976366],[-84.3651001814266,33.7535770498994],[-84.3651005235584,33.7535784649072],[-84.3651017758485,33.7535836617783],[-84.3651119454969,33.7536258713007],[-84.3651167112174,33.7536456412798],[-84.3651357083047,33.75372447316],[-84.3651363552848,33.7537271645876],[-84.3651364978397,33.753727748095],[-84.3651369825264,33.7537296226122],[-84.3651370461278,33.7537298450744],[-84.365137508883,33.7537314934826],[-84.36513807033,33.7537333497652],[-84.365138673447,33.7537352024008],[-84.3651393138475,33.7537370477426],[-84.3651399915317,33.7537388784966],[-84.3651407086926,33.7537407019568],[-84.3651414653302,33.7537425144762],[-84.3651422570583,33.7537443124078],[-84.3651430882631,33.7537461030456],[-84.3651439545583,33.7537478790956],[-84.3651448603303,33.7537496442049],[-84.3651458011928,33.7537513910795],[-84.3651467771457,33.7537531306603],[-84.3651477925753,33.7537548520064],[-84.3651488430954,33.7537565587648],[-84.3651499265127,33.7537582472885],[-84.3651510472137,33.7537599212246],[-84.3651522030051,33.7537615805729],[-84.3651533916938,33.7537632216867],[-84.3651546154729,33.7537648482127],[-84.3651558743424,33.7537664528571],[-84.3651571639161,33.753768039267],[-84.3651573810382,33.7537682945513],[-84.3651584885803,33.7537696074422],[-84.3651598439486,33.7537711537358],[-84.3651612322141,33.7537726854418],[-84.365162653377,33.7537741916193],[-84.365164105244,33.7537756795622],[-84.3651655856219,33.7537771456236],[-84.3651670988972,33.7537785898034],[-84.3651686428766,33.7537800084547],[-84.3651702131738,33.7537814088715],[-84.3651718141752,33.7537827837597],[-84.3651734436875,33.7537841367665],[-84.3651751017108,33.7537854642448],[-84.3651767882452,33.7537867698416],[-84.3651785010973,33.753788046263],[-84.3651802380741,33.7537893008029],[-84.3651820035619,33.7537905298143],[-84.3651837931744,33.7537917296504],[-84.3651856069116,33.7537929076049],[-84.3651874469665,33.7537940563841],[-84.365189308953,33.7537951796348],[-84.3651911950642,33.7537962737102],[-84.365193103107,33.7537973422572],[-84.3651950330812,33.7537983816288],[-84.365196984987,33.753799391825],[-84.3651989588243,33.7538003764928],[-84.3652000926841,33.7538009198835],[-84.3652009523999,33.7538013283383],[-84.3652029635208,33.7538022546554],[-84.3652058540959,33.7538035529581],[-84.3652072949971,33.7538042021094],[-84.3652101767996,33.7538055004121],[-84.365210154868,33.7538055405282],[-84.3652158789962,33.7538082173656],[-84.365221554875,33.7538108723214],[-84.3652281913546,33.7538143259521],[-84.3652332443781,33.7538169882015],[-84.3652368608866,33.7538189867121],[-84.3652608671344,33.7538313315251],[-84.3652885995484,33.7538494822263],[-84.3653050240679,33.753860233333],[-84.3653449701484,33.7538931357957],[-84.365380187792,33.7539296122198],[-84.3653969719885,33.7539517343867],[-84.365410220823,33.7539691957963],[-84.3654346832466,33.7540113650129],[-84.3654359421161,33.7540143627719],[-84.3654521692518,33.7540529944665],[-84.3654521253888,33.7540530017603],[-84.3654516056116,33.7540532059871],[-84.365451136277,33.7540534831521],[-84.3654507327369,33.7540538223144],[-84.365450403764,33.7540542125335],[-84.3654501625172,33.7540546465154],[-84.365450015576,33.7540551133195],[-84.3654499673267,33.7540555874174],[-84.3654500177692,33.7540560651622],[-84.3654501669036,33.7540565283194],[-84.3654504103435,33.7540569623013],[-84.3654507415095,33.7540573525203],[-84.3654507853726,33.7540573926363],[-84.3654507415095,33.754057833912],[-84.365450791952,33.7540583116568],[-84.3654509410864,33.7540587748139],[-84.3654511845263,33.7540592087958],[-84.3654515134992,33.7540595990149],[-84.3654519214256,33.7540599381772],[-84.3654523907602,33.7540602116952],[-84.3654529127305,33.7540604122751],[-84.365453465405,33.7540605362699],[-84.3654540378178,33.7540605763859],[-84.3654546102306,33.754060532623],[-84.3654548054212,33.7540604888601],[-84.3654598562515,33.7540778663687],[-84.3654701531027,33.7541132887589],[-84.3654805925089,33.7541696917645],[-84.3654841914722,33.7542134254026],[-84.3654852770827,33.7542266308272],[-84.3654841717338,33.7542836974935],[-84.3654776164009,33.7543377554336],[-84.3654772786554,33.7543377299053],[-84.3654767084357,33.7543377736681],[-84.3654761557613,33.7543378976625],[-84.3654756359841,33.7543381018886],[-84.3654751666495,33.7543383754057],[-84.3654747609162,33.7543387182138],[-84.3654744319434,33.7543391084316],[-84.3654741928897,33.754339546059],[-84.3654740437554,33.7543400055677],[-84.365473995506,33.7543404833109],[-84.3654740459485,33.7543409610541],[-84.365474197276,33.7543414242098],[-84.3654744385228,33.7543418581903],[-84.3654747696888,33.754342248408],[-84.3654751754221,33.7543425875692],[-84.3654756469499,33.7543428610863],[-84.365476166727,33.7543430616655],[-84.3654767215946,33.7543431856599],[-84.3654768159002,33.7543431929537],[-84.365475576769,33.754350373689],[-84.3654520727531,33.7544863772125],[-84.365434143731,33.7545901274827],[-84.3654285709304,33.7546223805202],[-84.3654050691077,33.7547583836121],[-84.3653815650918,33.7548943864884],[-84.365358061076,33.7550303891488],[-84.3653345592532,33.7551663915936],[-84.3653110552374,33.7553023938225],[-84.365296630873,33.7553858702668],[-84.3652875534146,33.7554383958358],[-84.365278486922,33.755490863023],[-84.3652640493988,33.7555743976333],[-84.3652415739714,33.755704462165],[-84.3652410980573,33.7557044293434],[-84.3652405278377,33.7557044694586],[-84.3652399729701,33.7557045970979],[-84.3652394531929,33.7557047976739],[-84.3652389860514,33.7557050748335],[-84.3652385803182,33.7557054139893],[-84.3652382513453,33.7557058078477],[-84.3652380100986,33.7557062418213],[-84.3652378631573,33.7557067049695],[-84.365237814908,33.7557071827051],[-84.3652378653505,33.7557076604407],[-84.3652380144849,33.7557081199421],[-84.3652382579248,33.7557085539157],[-84.3652385890908,33.7557089477741],[-84.3652389948241,33.7557092869299],[-84.3652394641587,33.7557095604426],[-84.3652399839359,33.7557097610186],[-84.3652405388034,33.755709885011],[-84.365240604598,33.7557098886579],[-84.3652411046368,33.7557071754115],[-84.3652415739714,33.755704462165]]]},"properties":{"FID":27,"Name":"Eastside Trail Extension","Status":"Construction","Implementa":"Atlanta Beltline","Type":"Main","FT":6625,"MILES":1.25,"Shape_Leng":6624.89824556,"Shape__Length":2432.7324012788904}},{"type":"Feature","id":28,"geometry":{"type":"LineString","coordinates":[[-84.4317776817592,33.7377761949958],[-84.4318257410692,33.7377934486826],[-84.43186991898,33.737816849162],[-84.4319090988304,33.7378458037437],[-84.431942289799,33.7378795815145],[-84.4319578898947,33.737900213957],[-84.4319712366374,33.7379219215049],[-84.4319816774092,33.7379406003208],[-84.4319956258139,33.7379645796481],[-84.432010072192,33.7379883514244],[-84.4320250143689,33.7380119102443],[-84.4320404458388,33.7380352462032],[-84.4320563622713,33.7380583548021],[-84.4320727582428,33.7380812270358],[-84.4320896304963,33.7381038565997],[-84.4321069725373,33.7381262371958],[-84.432124780027,33.7381483616201],[-84.4321430464678,33.738170222673],[-84.4321617675238,33.7381918140522],[-84.4321809356209,33.738213129462],[-84.4322005475023,33.7382341625977],[-84.4322205945092,33.7382549053628],[-84.4322410723109,33.7382753532582],[-84.4322619744128,33.738295499986],[-84.432283293238,33.7383153383489],[-84.4323050244531,33.7383348629463],[-84.4323269367863,33.7383539714867],[-84.4323582753675,33.7383804947963],[-84.4323901629571,33.7384065570717],[-84.4324225898195,33.7384321511202],[-84.4324555472932,33.7384572679435],[-84.4324890234844,33.7384819003535],[-84.4325230097339,33.7385060402537],[-84.4325574952326,33.7385296822567],[-84.4326491716313,33.738595607753],[-84.4327355704022,33.738666334149],[-84.4328163301754,33.7387415682948],[-84.4328911164909,33.7388209953428],[-84.4328957690544,33.7388262212276],[-84.4329036232613,33.7388347898607],[-84.4329116551843,33.7388432417966],[-84.4329198626618,33.7388515761381],[-84.4329282424453,33.7388597892856],[-84.4329367923705,33.7388678794404],[-84.432945510268,33.7388758430005],[-84.4329543928944,33.7388836781696],[-84.432963439165,33.7388913831466],[-84.4329726436751,33.7388989552383],[-84.4329820053373,33.738906391742],[-84.4329915209055,33.7389136899596],[-84.4330011871391,33.7389208489964],[-84.4330854532244,33.738984361085],[-84.4331740610509,33.7390561905365],[-84.433259345919,33.7391307753448],[-84.4333236341782,33.7391927948795],[-84.4333833776883,33.7392579096632],[-84.4334973594342,33.7393901337795],[-84.4335858044326,33.7394986994443],[-84.4336672278485,33.7396110329182],[-84.4337413998872,33.7397268191326],[-84.4338081112194,33.7398457312521],[-84.4338671751483,33.7399674333753],[-84.4339184233012,33.7400915832481],[-84.4339617131789,33.7402178304447],[-84.4339969206102,33.7403458190883],[-84.4340239473094,33.7404751887362],[-84.4340427176393,33.7406055743872],[-84.4340531775384,33.7407366082865],[-84.4340552988432,33.7408679217203],[-84.4340353268624,33.7421455711788],[-84.4340318247468,33.7422190204003],[-84.434023626924,33.7422922074889],[-84.4340123478807,33.7423703143681],[-84.433906913452,33.7431004263118],[-84.4338866322811,33.743217322028],[-84.4338596942639,33.7433332754885],[-84.4338261600751,33.7434480223729],[-84.4337861065854,33.7435613001278],[-84.4337396247174,33.7436728524804],[-84.433686821585,33.7437824231218],[-84.4336269959562,33.7438911658755],[-84.4335609433314,33.7439973631622],[-84.4334888183475,33.7441007675843],[-84.4334107918474,33.7442011362169],[-84.4333270433367,33.7442982342311],[-84.4332377717766,33.7443918348703],[-84.4331431837059,33.7444817176732],[-84.4330939257644,33.7445263026231],[-84.4307821247613,33.7466187064681],[-84.4305422718699,33.7468357887189],[-84.4304998762559,33.74687415908],[-84.4304245224492,33.7469423589586],[-84.4299954045205,33.7473307313599],[-84.4285785354158,33.7486130337185],[-84.4285599407304,33.7486299187783],[-84.4284650136836,33.7487179421731],[-84.4283719406392,33.7488073356858],[-84.42828074958,33.7488980722115],[-84.4281914674096,33.7489901246477],[-84.4281041221087,33.749083464988],[-84.4281029408672,33.7490847523473],[-84.4280856837748,33.7491039192951],[-84.4280688300325,33.7491233342431],[-84.4280523850234,33.7491429926718],[-84.428036351964,33.7491628873613],[-84.4280207383935,33.7491830128859],[-84.4280055464517,33.7492033629296],[-84.4279907825957,33.7492239311673],[-84.427976451127,33.7492447121802],[-84.427962555259,33.7492656978466],[-84.4279491003753,33.7492868836471],[-84.4279360896923,33.7493082623617],[-84.4279235285878,33.7493298276677],[-84.4279114191991,33.7493515723474],[-84.4278997658275,33.749373490982],[-84.4278920888408,33.7493886387927],[-84.427888572766,33.7493955754475],[-84.4278778421574,33.7494178203296],[-84.4278675782948,33.7494402175045],[-84.4278577833208,33.7494627615579],[-84.4278484615286,33.7494854443658],[-84.4278396150609,33.7495082605139],[-84.4278312460494,33.7495312009813],[-84.427823357719,33.7495542612529],[-84.4278010260595,33.74962176938],[-84.4277824029478,33.7496685703762],[-84.4277581409688,33.7497135321979],[-84.4277284934153,33.7497561818393],[-84.4276937730237,33.7497960714149],[-84.4276543455069,33.7498327808778],[-84.427617384469,33.749863831741],[-84.4276121542445,33.7498682563947],[-84.4275992054634,33.7498794814103],[-84.4275864925502,33.7498908934702],[-84.4275740208938,33.749902489858],[-84.4275617926364,33.7499142651595],[-84.4275498120901,33.7499262175622],[-84.4275380835588,33.7499383425489],[-84.4275266102724,33.7499506374079],[-84.4275153954528,33.7499630967224],[-84.42750444233,33.7499757177808],[-84.4274937552104,33.7499884969674],[-84.4274833362395,33.7500014297694],[-84.4274731897236,33.7500145125713],[-84.4274633178109,33.7500277417619],[-84.4274537226436,33.750041111927],[-84.4274444096134,33.7500546212516],[-84.4274353797806,33.7500682634223],[-84.4274266363725,33.7500820348255],[-84.4274181815369,33.7500959318503],[-84.427410019578,33.7501099499792],[-84.4274021504848,33.7501240856058],[-84.4273945785587,33.7501383333111],[-84.4273873048681,33.7501526894862],[-84.427380332635,33.7501671487146],[-84.4273736640101,33.7501817082866],[-84.4273673000565,33.7501963627903],[-84.4273612429167,33.7502111068112],[-84.4273554947414,33.7502259376399],[-84.427350057676,33.7502408507635],[-84.4273449327808,33.7502558398684],[-84.4273401222038,33.7502709013433],[-84.4273356270136,33.7502860315795],[-84.4273314482706,33.7503012242632],[-84.427327588123,33.7503164757832],[-84.4273240465544,33.7503317807297],[-84.4273208257129,33.7503471354916],[-84.427317925585,33.7503625355606],[-84.4273075980167,33.7504206861233],[-84.427293056425,33.7504827344163],[-84.4272717493534,33.7505434039326],[-84.4272438554881,33.7506021794468],[-84.4272096107818,33.7506585645468],[-84.4271693062954,33.750712081638],[-84.4271232838945,33.7507622764611],[-84.4270719319511,33.7508087244132],[-84.4270156853524,33.7508510332525],[-84.4268784861,33.7509450548893],[-84.426876328561,33.7509465399533],[-84.4268664428788,33.7509534891012],[-84.4268567044218,33.7509605803994],[-84.4268471153489,33.7509678138434],[-84.4268376788845,33.7509751849182],[-84.4268283982641,33.7509826927153],[-84.4268192756411,33.7509903354269],[-84.4268103142399,33.750998108538],[-84.4268015162194,33.751006012044],[-84.4267928858862,33.7510140423294],[-84.4267844232349,33.7510221975907],[-84.4267761325749,33.7510304751141],[-84.426768016054,33.7510388712885],[-84.4267600769077,33.7510473852053],[-84.4267523162046,33.7510560132558],[-84.4267447371774,33.7510647536298],[-84.426737341974,33.7510736027163],[-84.4267301327478,33.7510825587075],[-84.4267231116467,33.7510916179921],[-84.4267162808213,33.7511007778609],[-84.426709642425,33.7511100365059],[-84.4267031986057,33.7511193903161],[-84.4266969504375,33.7511288374858],[-84.4266909011449,33.7511383735002],[-84.4266850528813,33.7511479965513],[-84.4266794056358,33.7511577030326],[-84.4266739615592,33.7511674902346],[-84.4266687238816,33.7511773554456],[-84.4266636925947,33.7511872959607],[-84.4266588698465,33.7511973081687],[-84.4266542567057,33.7512073884608],[-84.4266498553255,33.7512175350293],[-84.4266456667747,33.7512277442651],[-84.4266416921244,33.7512380134612],[-84.4266379324405,33.7512483381071],[-84.4266343887971,33.7512587163972],[-84.4266310622628,33.7512691447226],[-84.4266279549881,33.7512796203738],[-84.4266250658802,33.751290138845],[-84.4264009663268,33.7521402312133],[-84.4260973486833,33.7532919329859],[-84.4260774667374,33.7533535622441],[-84.4260735747121,33.7533637230467],[-84.4260724695055,33.7533666313999],[-84.4260682748591,33.7533780993349],[-84.4260643200215,33.753389626275],[-84.4260606071433,33.7534012095108],[-84.4260571372933,33.7534128454333],[-84.4260539104579,33.7534245295345],[-84.426024632144,33.7535349435807],[-84.4258913995043,33.7540373833621],[-84.4258759036439,33.7540827339278],[-84.4258522239616,33.7541389981611],[-84.4258494561076,33.7541457519501],[-84.4258466819344,33.7541529169066],[-84.4258440579204,33.7541601212204],[-84.4258415851397,33.7541673630861],[-84.4258392635842,33.7541746397988],[-84.4258370943279,33.754181949553],[-84.4258350784394,33.7541892887396],[-84.4256503403638,33.7548898936117],[-84.4255033823888,33.7554472137743],[-84.4255019492877,33.7554527376049],[-84.4254985071933,33.7554668367682],[-84.4254953588526,33.7554809840046],[-84.4254925074907,33.7554951747994],[-84.4254899520174,33.7555094055481],[-84.4254876945754,33.7555236708363],[-84.4254857362336,33.7555379670553],[-84.425461269029,33.7557314816778],[-84.4254553009105,33.7557699821785],[-84.4254436302372,33.7558222042771],[-84.42535057912,33.7561751451461],[-84.4253280785229,33.7562548209326],[-84.4253027468294,33.7563339012427],[-84.4252964873486,33.7563523387469],[-84.4252900916823,33.7563714383496],[-84.4252753072976,33.756417787268],[-84.4252614928765,33.7564643433359],[-84.4252486537826,33.7565110948212],[-84.4252480155334,33.7565135161963],[-84.4252304933433,33.756578842536],[-84.4252125979829,33.7566475220021]]},"properties":{"FID":28,"Name":"Westside Trail","Status":"Construction","Implementa":"Atlanta Beltline","Type":"Main","FT":7950,"MILES":1.51,"Shape_Leng":7950.27874291,"Shape__Length":2921.8916445283489}},{"type":"Feature","id":32,"geometry":{"type":"LineString","coordinates":[[-84.4005546489302,33.8044435509627],[-84.4019110127176,33.8044354204463],[-84.4019774906747,33.8044200098361],[-84.4020416218685,33.8043987700105],[-84.4021026746671,33.8043719431091],[-84.4021599521787,33.8043398352237],[-84.4022098068252,33.8043051339212],[-84.4022552394915,33.8042664323199],[-84.4022957911406,33.804224120813],[-84.4023310535999,33.8041786257626],[-84.4027718582208,33.8035419060736],[-84.4035861958394,33.8025705446458],[-84.4043707378576,33.801602787639],[-84.405164089133,33.8007486846331],[-84.4059917311381,33.7999904245107],[-84.4070954507111,33.7990575534326],[-84.4075412142006,33.7986943413858],[-84.4076054591208,33.7986698371792],[-84.4076659928719,33.7986394533296],[-84.4077220454099,33.7986035745474],[-84.4077729062934,33.7985626566577],[-84.4078146141336,33.7985209424501],[-84.4078509135654,33.7984758422938],[-84.4078814139172,33.7984278411423],[-84.4079057861753,33.7983774580907],[-84.4079237672756,33.7983252364489],[-84.4079351633281,33.7982717383257],[-84.407939850691,33.7982175428224],[-84.4079855877461,33.7963204795695],[-84.4079873277105,33.7962889725771],[-84.4079949778888,33.7962580860795],[-84.4080083503585,33.7962285886474],[-84.4080271113003,33.7962012121687],[-84.4080507950055,33.7961766401],[-84.4080788102829,33.7961554813062],[-84.4081104620374,33.7961382628054],[-84.4081449631069,33.7961254144187],[-84.4081814536577,33.7961172534036],[-84.4082190281832,33.7961139844022],[-84.4093507690128,33.7960904493563],[-84.4094066234027,33.7960793285481],[-84.409462181161,33.7960645142456],[-84.4095173419188,33.7960460327945],[-84.4095719815944,33.7960239268172],[-84.4096260138641,33.7959982244353],[-84.4096791981928,33.795969032518],[-84.4097313253879,33.7959364659878],[-84.4097821129967,33.7959007021256],[-84.4098337544932,33.7958598611815],[-84.4098830151698,33.795816154061],[-84.4099292766666,33.7957701238767],[-84.4099716139025,33.7957226894327],[-84.410009638817,33.7956741048614],[-84.4100409297181,33.7956272674315],[-84.4100638831354,33.7955845543514],[-84.4100768263448,33.7955490561698],[-84.410088887246,33.7955196710995],[-84.4101120253342,33.7954849877252],[-84.4101461674821,33.7954451215959],[-84.4101911285279,33.795400288562],[-84.4102475873156,33.7953499589052],[-84.4103141232684,33.7952955122323],[-84.4103901774027,33.7952374915218],[-84.4104672365004,33.795182389217],[-84.4106625329877,33.7951400088745],[-84.4108596748623,33.7951040767659],[-84.4110583577789,33.795074648486],[-84.4113043858187,33.7950389010375],[-84.4115488761178,33.7949964352642],[-84.411791567412,33.7949472994817],[-84.4120321984444,33.7948915438108],[-84.4121339501051,33.7948632776076],[-84.4122331582898,33.7948292891127],[-84.4123293622991,33.7947897370381],[-84.4124221144625,33.7947448035137],[-84.4125109855489,33.7946946976833],[-84.4125955593617,33.7946396539117],[-84.412675445683,33.7945799263489],[-84.412750272727,33.794515793453],[-84.4128196914468,33.7944475534736],[-84.4128833798491,33.794375522639],[-84.4129410429994,33.79430003696],[-84.4130265359176,33.7941819153409],[-84.4131148178761,33.7940652325306],[-84.4138439366821,33.793122391656],[-84.4139607809403,33.7931028099441],[-84.4140761376673,33.79307782482],[-84.4141896485393,33.7930475163515],[-84.4143009617496,33.7930119772182],[-84.4144097320223,33.7929713172185],[-84.4145156216923,33.7929256632684],[-84.4145967448589,33.7929547299235],[-84.4146805369203,33.7929779277397],[-84.4147663893804,33.7929950884253],[-84.4148536787497,33.7930060879012],[-84.4149417730253,33.7930108462878],[-84.4150300327744,33.7930093288046],[-84.4151178176168,33.793001546659],[-84.4152044905425,33.7929875561358],[-84.4152894233126,33.7929674585863],[-84.4153720007762,33.7929413995178],[-84.4154516219541,33.7929095694929],[-84.415747100305,33.7927746989377],[-84.4160389009514,33.7926343584942],[-84.416326879355,33.7924886197109],[-84.4164430701484,33.7924241240535],[-84.4165543097272,33.7923538055496],[-84.4166601787629,33.7922779283436],[-84.4176805724484,33.792261608782]]},"properties":{"FID":32,"Name":"NW Trail I-75 Crossing","Status":"Planning","Implementa":"Atlanta Beltline","Type":"Main","FT":7604,"MILES":1.44,"Shape_Leng":7604.33827979,"Shape__Length":2792.41526847518}},{"type":"Feature","id":34,"geometry":{"type":"LineString","coordinates":[[-84.4110434922717,33.7222182301778],[-84.4111816301412,33.722211732621],[-84.4111835850766,33.7222116358798],[-84.4111898845035,33.7222112645478],[-84.4111961739608,33.7222108021677],[-84.4112024534461,33.7222102478378],[-84.4112087197221,33.7222096015645],[-84.4112149717124,33.7222088642516],[-84.411221207259,33.7222080359034],[-84.4112274252827,33.722207116522],[-84.4112336225491,33.7222061070156],[-84.4112397979791,33.7222050073861],[-84.4112459494146,33.722203817638],[-84.4112520757791,33.722202538675],[-84.4112581738329,33.7222011696018],[-84.4112642425022,33.722199712224],[-84.4112702796314,33.7221981674474],[-84.4112762830574,33.722196533473],[-84.4112822517087,33.722194813008],[-84.4112881845063,33.7221930060544],[-84.4112940782132,33.7221911126187],[-84.4112999306712,33.7221891327052],[-84.4113459943887,33.722176119782],[-84.4113937304697,33.7221683863478],[-84.4114422760894,33.7221660711627],[-84.4114907552044,33.7221692174387],[-84.4115382914846,33.7221777674039],[-84.4115670046901,33.7221865494347],[-84.4115939243005,33.7221986639406],[-84.4116185003911,33.7222138649589],[-84.4116402303215,33.7222318388089],[-84.4116586695713,33.7222522203003],[-84.4116912826079,33.7223260014706],[-84.4116931260538,33.7223516058288],[-84.4116905593567,33.7223771666399],[-84.4116783131233,33.7224424025145],[-84.4116781675325,33.7224431899516],[-84.4116776803497,33.7224460392586],[-84.4116772525315,33.7224488947594],[-84.4116768840753,33.7224517555524],[-84.4116765760628,33.7224546225372],[-84.4116763274073,33.7224574930108],[-84.4116761391851,33.7224603660695],[-84.4116760103199,33.7224632426171],[-84.411675941883,33.7224661199464],[-84.4116759338718,33.7224689971559],[-84.4116759852099,33.7224718751494],[-84.4116760969686,33.7224747512195],[-84.4116762691505,33.7224776262683],[-84.411676501748,33.7224804975905],[-84.4116767926029,33.7224833651905],[-84.4116771449472,33.7224862272585],[-84.4116775566255,33.7224890847006],[-84.4116780276326,33.7224919357134],[-84.411678557966,33.7224947793951],[-84.4116791476231,33.7224976148443],[-84.4116797966013,33.7225004411592],[-84.4116805048982,33.7225032574381],[-84.4116812714346,33.7225060636833],[-84.411682097282,33.7225088571876],[-84.4116829802848,33.7225116388569],[-84.4116839215195,33.7225144077875],[-84.4116849209784,33.7225171612743],[-84.4116859765086,33.722519901125],[-84.4116870902605,33.7225226246303],[-84.4116882600734,33.7225253308929],[-84.4116894870265,33.7225280199106],[-84.4116907700406,33.7225306916855],[-84.411692108029,33.7225333435149],[-84.4116935009918,33.7225359753987],[-84.4116949489264,33.7225385864352],[-84.4116964507512,33.7225411757251],[-84.4116980075452,33.722543743266],[-84.4116996171453,33.722546287259],[-84.4117012795515,33.722548807704],[-84.4117029947611,33.7225513036996],[-84.4117047606137,33.7225537743481],[-84.4117065792646,33.7225562187437],[-84.4117084474743,33.7225586359913],[-84.4117103674007,33.7225610260864],[-84.4117123358017,33.7225633872322],[-84.4117143537564,33.7225657194266],[-84.411716419104,33.7225680217722],[-84.4117185329236,33.7225702942669],[-84.4117206941311,33.7225725351094],[-84.4117229016475,33.7225747443019],[-84.4117251554701,33.7225769209428],[-84.4117274534383,33.7225790641346],[-84.4117297966313,33.7225811738754],[-84.4117321828857,33.7225832483659],[-84.4117346122042,33.7225852885079],[-84.4117370835025,33.7225872925002],[-84.4117395967808,33.7225892603428],[-84.4117411517787,33.7225904357253],[-84.4117427509966,33.7225916038069],[-84.4117443738866,33.7225927483982],[-84.4117460204462,33.7225938685979],[-84.4117476906754,33.7225949644058],[-84.4117493834976,33.7225960367256],[-84.4117510989079,33.7225970837542],[-84.411752835827,33.7225981054936],[-84.4117545931762,33.722599101946],[-84.4117563709526,33.7226000722097],[-84.4117581691564,33.7226010162848],[-84.4117599867085,33.7226019341733],[-84.411761823609,33.7226028258753],[-84.4117636787761,33.7226036904912],[-84.411765551131,33.7226045280233],[-84.4117674406709,33.7226053375698],[-84.4117693473985,33.7226061200323],[-84.4117712702297,33.7226068736098],[-84.4117732080905,33.7226076001077],[-84.4117751609758,33.7226082977226],[-84.411777127809,33.7226089673585],[-84.4117791085852,33.7226096072118],[-84.4117811022303,33.7226102190882],[-84.4117831087393,33.7226108011843],[-84.4117851270331,33.7226113535022],[-84.4117871560353,33.7226118769457],[-84.4117891957432,33.7226123706132],[-84.4117912461569,33.7226128345047],[-84.4117933061974,33.7226132686223],[-84.4117953737039,33.7226136720686],[-84.4117974497582,33.7226140457432],[-84.4117995343576,33.7226143887444],[-84.4118016242676,33.7226147019803],[-84.4118037216437,33.7226149845449],[-84.4118058232463,33.722615235543],[-84.4118079312385,33.7226154567737],[-84.411810042378,33.72261564644],[-84.4118121577492,33.7226158063432],[-84.4118142762677,33.722615934682],[-84.4118163968572,33.7226160323602],[-84.411818519515,33.7226160984763],[-84.4118206431673,33.7226161348356],[-84.4118227667273,33.7226161387353],[-84.4118248902027,33.7226161128804],[-84.4118270125093,33.7226160554698],[-84.4118291336498,33.722615967405],[-84.411829717317,33.7226159346883],[-84.4118312536215,33.7226158477844],[-84.4118333691925,33.7226156984178],[-84.4118354825158,33.7226155174976],[-84.4118375914356,33.7226153059296],[-84.4118396948732,33.7226150637161],[-84.4118417939049,33.7226147899533],[-84.4118438863778,33.7226144864487],[-84.4118459722894,33.7226141523006],[-84.4118480505631,33.722613788413],[-84.4118501211964,33.7226133938841],[-84.4118521831102,33.7226129687161],[-84.4118542363071,33.7226125138106],[-84.4118562797082,33.7226120291698],[-84.4118583122343,33.7226115147957],[-84.4118603338855,33.7226109706885],[-84.4118623435852,33.7226103977519],[-84.4118643413309,33.7226097950843],[-84.4118663260462,33.7226091635894],[-84.4118682977284,33.7226085023656],[-84.4118702542247,33.7226078132205],[-84.411872196614,33.722607096152],[-84.4118741238149,33.7226063502604],[-84.4119447849721,33.722578378445],[-84.4120415196176,33.7227490019628],[-84.4120850603136,33.722832910383],[-84.4121658572104,33.7230039982603],[-84.4121745885988,33.7230221087547],[-84.4121857333047,33.723044209701],[-84.4121973372145,33.7230661438282],[-84.4122093992364,33.7230879066299],[-84.4133930886519,33.7251756626634],[-84.4134121690203,33.7252089291028],[-84.4134504037352,33.7252733943213],[-84.4134899792536,33.725337293311],[-84.4135308836462,33.7254006044546],[-84.4135527848587,33.7254331312822],[-84.4135731049934,33.7254633097414],[-84.4136166281337,33.725525389364],[-84.4136614422263,33.7255868253096],[-84.4137075331884,33.7256475977683],[-84.4137548858654,33.7257076896377],[-84.413803487253,33.7257670811058],[-84.4138533211176,33.7258257550721],[-84.4139043723016,33.7258836935324],[-84.4139566267265,33.7259408784801],[-84.4140100670788,33.7259972928169],[-84.4140646782007,33.7260529185386],[-84.4141204427838,33.72610774035],[-84.4141773445906,33.726161740249],[-84.4142353641518,33.7262149020432],[-84.4142944863139,33.7262672095316],[-84.4143546926862,33.7263186465197],[-84.4144159627223,33.726369197719],[-84.4144782801944,33.7264188487338],[-84.4145416256298,33.7264675824703],[-84.4146059795656,33.726515385441],[-84.4146713214549,33.7265622423575],[-84.414737631832,33.7266081388308],[-84.414804891234,33.7266530613736],[-84.414873079121,33.7266969974025],[-84.4149421738637,33.7267399307295],[-84.4161355770695,33.7274680437973],[-84.4161846256901,33.7274994711815],[-84.4162318528997,33.7275327884955],[-84.4163403438991,33.7276130457941],[-84.416346982629,33.7276179238672],[-84.4163644085336,33.7276304180752],[-84.416382091608,33.7276426565914],[-84.4164000286044,33.7276546358157],[-84.4164182119562,33.727666351255],[-84.4164366384181,33.7276778002108],[-84.4165424231626,33.7277423369849],[-84.4165690150399,33.727758559908],[-84.4168936466884,33.727956609958],[-84.416920247346,33.7279728381968],[-84.4201802132697,33.7299615622334],[-84.4202797607483,33.7300234991749],[-84.4203778917356,33.7300869934031],[-84.4205029219165,33.7301715752324],[-84.4206254400131,33.7302586858388],[-84.4223715524773,33.7315312299257],[-84.4224523119825,33.7315891312075],[-84.4225406905957,33.731650368109],[-84.4226303345656,33.7317103075437],[-84.422721217935,33.731768930628],[-84.4228133104324,33.7318262193886],[-84.4231476550278,33.7320304396521],[-84.4232420381548,33.7320902984646],[-84.4233337804209,33.7321529587319],[-84.4236028658221,33.7323436027693],[-84.4236155542927,33.7323525541686],[-84.4236686686988,33.7323892087093],[-84.4237225416339,33.7324250835178],[-84.4237771547168,33.7324601669097],[-84.4238324928092,33.7324944489975],[-84.4238885375297,33.7325279180969],[-84.4240222605015,33.7325794757507]]},"properties":{"FID":34,"Name":"Westside Trail","Status":"Construction","Implementa":"Atlanta Beltline","Type":"Main","FT":5674,"MILES":1.07,"Shape_Leng":5673.907055,"Shape__Length":2082.13663790339}},{"type":"Feature","id":35,"geometry":{"type":"LineString","coordinates":[[-84.4240222605015,33.7325794757507],[-84.4254756217727,33.7332973491632],[-84.4271522601827,33.7342843245052],[-84.4288520065156,33.7352129627123],[-84.4304122551311,33.7361224536394],[-84.4309945925285,33.7365096393046],[-84.4314383529622,33.7371884436394],[-84.4317776817592,33.7377761949958]]},"properties":{"FID":35,"Name":"Westside Trail","Status":"Planning","Implementa":"Atlanta Beltline","Type":"Main","FT":3078,"MILES":0.58,"Shape_Leng":3077.71377794,"Shape__Length":1129.0411472347325}}]}